[
  {
    "OBJECT_NAME": "STARLINK-11597 [DTC]",
    "OBJECT_ID": "25039M",
    "EPOCH": "2025-11-11T03:17:36.660768",
    "MEAN_MOTION": 15.70918929,
    "ECCENTRICITY": 0.0002022,
    "INCLINATION": 42.9991,
    "RA_OF_ASC_NODE": 231.1326,
    "ARG_OF_PERICENTER": 259.9204,
    "MEAN_ANOMALY": 100.1436,
    "EPHEMERIS_TYPE": 0,
    "CLASSIFICATION_TYPE": "U",
    "NORAD_CAT_ID": 63115,
    "ELEMENT_SET_NO": 999,
    "REV_AT_EPOCH": 4097,
    "BSTAR": 0.0015923,
    "MEAN_MOTION_DOT": 0.00209799,
    "MEAN_MOTION_DDOT": 0.0,
    "TLE_LINE1": "1 63115U 25039M   25315.13722987  .00209799  00000+0  15923-2 0  9997",
    "TLE_LINE2": "2 63115  42.9991 231.1326 0002022 259.9204 100.1436 15.70918929 40973",
    "COMMENT": "Grouped by shell and plane from TLE"
  },
  {
    "OBJECT_NAME": "STARLINK-11591 [DTC]",
    "OBJECT_ID": "25039N",
    "EPOCH": "2025-11-11T03:09:58.238784",
    "MEAN_MOTION": 15.70846074,
    "ECCENTRICITY": 0.0001884,
    "INCLINATION": 42.9985,
    "RA_OF_ASC_NODE": 231.0897,
    "ARG_OF_PERICENTER": 255.9024,
    "MEAN_ANOMALY": 104.1634,
    "EPHEMERIS_TYPE": 0,
    "CLASSIFICATION_TYPE": "U",
    "NORAD_CAT_ID": 63116,
    "ELEMENT_SET_NO": 999,
    "REV_AT_EPOCH": 4097,
    "BSTAR": 0.002225,
    "MEAN_MOTION_DOT": 0.00295509,
    "MEAN_MOTION_DDOT": 0.0,
    "TLE_LINE1": "1 63116U 25039N   25315.13192406  .00295509  00000+0  22250-2 0  9990",
    "TLE_LINE2": "2 63116  42.9985 231.0897 0001884 255.9024 104.1634 15.70846074 40975",
    "COMMENT": "Grouped by shell and plane from TLE"
  }
]